{"type": "FeatureCollection", "features": [ {"type": "Feature", "properties": {"norad_id": 65942, "name": "BOTAN", "group": "stations", "lat": 3.591725001449538, "lon": -3.5879098453388836, "alt_km": 382.66975542627915, "timestamp": "2025-12-04T19:33:58.467945+00:00", "meta": {"OBJECT_NAME": "BOTAN", "OBJECT_ID": "1998-067XP", "EPOCH": "2025-12-04T06:31:29.212032", "MEAN_MOTION": 15.60670487, "ECCENTRICITY": 0.00041989, "INCLINATION": 51.6276, "RA_OF_ASC_NODE": 182.0008, "ARG_OF_PERICENTER": 178.1888, "MEAN_ANOMALY": 181.9121, "EPHEMERIS_TYPE": 0, "CLASSIFICATION_TYPE": "U", "NORAD_CAT_ID": 65942, "ELEMENT_SET_NO": 999, "REV_AT_EPOCH": 854, "BSTAR": 0.0018696572, "MEAN_MOTION_DOT": 0.00160832, "MEAN_MOTION_DDOT": 0}, "tle": {"line1": "1 65942U 98067XP  25338.27186588  .00160832  00000+0  18697-2 0  9994", "line2": "2 65942  51.6276 182.0008 0004198 178.1888 181.9121 15.60670487  8541"}}, "geometry": {"type": "Point", "coordinates": [-3.5879098453388836, 3.591725001449538]}}, {"type": "Feature", "properties": {"norad_id": 65943, "name": "E-KAGAKU-1", "group": "stations", "lat": -45.447113656757075, "lon": 126.17369514645972, "alt_km": 399.6731585095058, "timestamp": "2025-12-04T19:33:58.467955+00:00", "meta": {"OBJECT_NAME": "E-KAGAKU-1", "OBJECT_ID": "1998-067XQ", "EPOCH": "2025-12-02T21:39:34.941600", "MEAN_MOTION": 15.57714998, "ECCENTRICITY": 0.00035202, "INCLINATION": 51.6296, "RA_OF_ASC_NODE": 189.358, "ARG_OF_PERICENTER": 147.4331, "MEAN_ANOMALY": 212.6879, "EPHEMERIS_TYPE": 0, "CLASSIFICATION_TYPE": "U", "NORAD_CAT_ID": 65943, "ELEMENT_SET_NO": 999, "REV_AT_EPOCH": 832, "BSTAR": 0.00096701912, "MEAN_MOTION_DOT": 0.00073283, "MEAN_MOTION_DDOT": 0}, "tle": {"line1": "1 65943U 98067XQ  25336.90248775  .00073283  00000+0  96702-3 0  9997", "line2": "2 65943  51.6296 189.3580 0003520 147.4331 212.6879 15.57714998  8329"}}, "geometry": {"type": "Point", "coordinates": [126.17369514645972, -45.447113656757075]}}, {"type": "Feature", "properties": {"norad_id": 66052, "name": "HRC MONOBLOCK CAMERA", "group": "stations", "lat": 43.33902612481971, "lon": -130.61507698944084, "alt_km": 401.02100602963765, "timestamp": "2025-12-04T19:33:58.467964+00:00", "meta": {"OBJECT_NAME": "HRC MONOBLOCK CAMERA", "OBJECT_ID": "1998-067XR", "EPOCH": "2025-12-04T06:57:07.350624", "MEAN_MOTION": 15.53318158, "ECCENTRICITY": 0.00043168, "INCLINATION": 51.6291, "RA_OF_ASC_NODE": 183.6143, "ARG_OF_PERICENTER": 150.6108, "MEAN_ANOMALY": 209.5126, "EPHEMERIS_TYPE": 0, "CLASSIFICATION_TYPE": "U", "NORAD_CAT_ID": 66052, "ELEMENT_SET_NO": 999, "REV_AT_EPOCH": 752, "BSTAR": 0.00094005193, "MEAN_MOTION_DOT": 0.00060423, "MEAN_MOTION_DDOT": 0}, "tle": {"line1": "1 66052U 98067XR  25338.28966841  .00060423  00000+0  94005-3 0  9999", "line2": "2 66052  51.6291 183.6143 0004316 150.6108 209.5126 15.53318158  7525"}}, "geometry": {"type": "Point", "coordinates": [-130.61507698944084, 43.33902612481971]}}, {"type": "Feature", "properties": {"norad_id": 66174, "name": "HTV-X1", "group": "stations", "lat": 49.88654909644695, "lon": -108.16410890287591, "alt_km": 413.31043221518576, "timestamp": "2025-12-04T19:33:58.467975+00:00", "meta": {"OBJECT_NAME": "HTV-X1", "OBJECT_ID": "2025-241A", "EPOCH": "2025-12-04T02:12:18.455328", "MEAN_MOTION": 15.49293095, "ECCENTRICITY": 0.00036281, "INCLINATION": 51.6302, "RA_OF_ASC_NODE": 185.2932, "ARG_OF_PERICENTER": 200.9086, "MEAN_ANOMALY": 159.1754, "EPHEMERIS_TYPE": 0, "CLASSIFICATION_TYPE": "U", "NORAD_CAT_ID": 66174, "ELEMENT_SET_NO": 999, "REV_AT_EPOCH": 51, "BSTAR": 0.00029177423, "MEAN_MOTION_DOT": 0.00015824, "MEAN_MOTION_DDOT": 0}, "tle": {"line1": "1 66174U 25241A   25338.09188027  .00015824  00000+0  29177-3 0  9992", "line2": "2 66174  51.6302 185.2932 0003628 200.9086 159.1754 15.49293095   512"}}, "geometry": {"type": "Point", "coordinates": [-108.16410890287591, 49.88654909644695]}}, {"type": "Feature", "properties": {"norad_id": 66515, "name": "SZ-21 MODULE", "group": "stations", "lat": 36.64677140736458, "lon": 121.73009968497723, "alt_km": 379.6590629387638, "timestamp": "2025-12-04T19:33:58.467984+00:00", "meta": {"OBJECT_NAME": "SZ-21 MODULE", "OBJECT_ID": "2025-246C", "EPOCH": "2025-12-03T07:59:41.917920", "MEAN_MOTION": 15.61790567, "ECCENTRICITY": 0.0005832, "INCLINATION": 41.4771, "RA_OF_ASC_NODE": 73.3983, "ARG_OF_PERICENTER": 205.8085, "MEAN_ANOMALY": 154.2464, "EPHEMERIS_TYPE": 0, "CLASSIFICATION_TYPE": "U", "NORAD_CAT_ID": 66515, "ELEMENT_SET_NO": 999, "REV_AT_EPOCH": 297, "BSTAR": 0.00036812, "MEAN_MOTION_DOT": 0.0003262, "MEAN_MOTION_DDOT": 0}, "tle": {"line1": "1 66515U 25246C   25337.33312405  .00032620  00000+0  36812-3 0  9998", "line2": "2 66515  41.4771  73.3983 0005832 205.8085 154.2464 15.61790567  2979"}}, "geometry": {"type": "Point", "coordinates": [121.73009968497723, 36.64677140736458]}}, {"type": "Feature", "properties": {"norad_id": 66645, "name": "SHENZHOU-22", "group": "stations", "lat": -38.39134186106887, "lon": -51.40596153627267, "alt_km": 393.28397517423946, "timestamp": "2025-12-04T19:33:58.467993+00:00", "meta": {"OBJECT_NAME": "SHENZHOU-22", "OBJECT_ID": "2025-272A", "EPOCH": "2025-12-04T07:44:04.873632", "MEAN_MOTION": 15.58643052, "ECCENTRICITY": 0.00099613, "INCLINATION": 41.4682, "RA_OF_ASC_NODE": 67.7893, "ARG_OF_PERICENTER": 326.0847, "MEAN_ANOMALY": 33.9353, "EPHEMERIS_TYPE": 0, "CLASSIFICATION_TYPE": "U", "NORAD_CAT_ID": 66645, "ELEMENT_SET_NO": 999, "REV_AT_EPOCH": 26274, "BSTAR": 0.00047338698, "MEAN_MOTION_DOT": 0.00037313, "MEAN_MOTION_DDOT": 0}, "tle": {"line1": "1 66645U 25272A   25338.32227863  .00037313  00000+0  47339-3 0  9994", "line2": "2 66645  41.4682  67.7893 0009961 326.0847  33.9353 15.58643052262745"}}, "geometry": {"type": "Point", "coordinates": [-51.40596153627267, -38.39134186106887]}}, {"type": "Feature", "properties": {"norad_id": 66646, "name": "CZ-2F R/B", "group": "stations", "lat": 35.586024135283, "lon": 114.78076735666416, "alt_km": 290.17715362686886, "timestamp": "2025-12-04T19:33:58.468003+00:00", "meta": {"OBJECT_NAME": "CZ-2F R/B", "OBJECT_ID": "2025-272B", "EPOCH": "2025-11-26T11:17:54.506400", "MEAN_MOTION": 16.01945612, "ECCENTRICITY": 0.01210796, "INCLINATION": 41.4431, "RA_OF_ASC_NODE": 114.9009, "ARG_OF_PERICENTER": 133.7676, "MEAN_ANOMALY": 227.3272, "EPHEMERIS_TYPE": 0, "CLASSIFICATION_TYPE": "U", "NORAD_CAT_ID": 66646, "ELEMENT_SET_NO": 999, "REV_AT_EPOCH": 21, "BSTAR": 0.00029319366, "MEAN_MOTION_DOT": 0.00449059, "MEAN_MOTION_DDOT": 7.567612e-06}, "tle": {"line1": "1 66646U 25272B   25330.47076975  .00449059  75676-5  29319-3 0  9998", "line2": "2 66646  41.4431 114.9009 0121079 133.7676 227.3272 16.01945612   217"}}, "geometry": {"type": "Point", "coordinates": [114.78076735666416, 35.586024135283]}}, {"type": "Feature", "properties": {"norad_id": 66664, "name": "SOYUZ-MS 28", "group": "stations", "lat": 49.886549734052835, "lon": -108.16410532550667, "alt_km": 413.31043204320395, "timestamp": "2025-12-04T19:33:58.468012+00:00", "meta": {"OBJECT_NAME": "SOYUZ-MS 28", "OBJECT_ID": "2025-275A", "EPOCH": "2025-12-04T02:12:18.455328", "MEAN_MOTION": 15.49293095, "ECCENTRICITY": 0.00036281, "INCLINATION": 51.6302, "RA_OF_ASC_NODE": 185.2932, "ARG_OF_PERICENTER": 200.9086, "MEAN_ANOMALY": 159.1754, "EPHEMERIS_TYPE": 0, "CLASSIFICATION_TYPE": "U", "NORAD_CAT_ID": 66664, "ELEMENT_SET_NO": 999, "REV_AT_EPOCH": 110, "BSTAR": 0.00029177423, "MEAN_MOTION_DOT": 0.00015824, "MEAN_MOTION_DDOT": 0}, "tle": {"line1": "1 66664U 25275A   25338.09188027  .00015824  00000+0  29177-3 0  9993", "line2": "2 66664  51.6302 185.2932 0003628 200.9086 159.1754 15.49293095  1102"}}, "geometry": {"type": "Point", "coordinates": [-108.16410532550667, 49.886549734052835]}}]}